- id: gps-41019
  name: NAVSTAR 75 (USA 265)
  allegiance: friendly
  components:
    - kind: space_orbit
      data:
        line1: "1 41019U 15062A   26086.51063787 -.00000070  00000+0  00000+0 0  9994"
        line2: "2 41019  56.9083  33.9579 0111316 231.5995 127.3861  2.00566923 76195"
        fov_half_angle_deg: 5.0
    - kind: symbol
      data:
        sidc_template:
          version: "10"
          context: reality
          standard_identity: friend
          symbol_set: space
          status: present
          hqtfd: not_applicable
          amplifier: unspecified
          entity: code_110700
          modifier_one: code_02
          modifier_two: code_00
